NORAD_CAT_ID,OBJECT_NAME,OBJECT_TYPE,EPOCH,MEAN_MOTION,ECCENTRICITY,INCLINATION,RA_OF_ASC_NODE,ARG_OF_PERICENTER,MEAN_ANOMALY,BSTAR,MEAN_MOTION_DOT,MEAN_MOTION_DDOT,TLE_LINE0,TLE_LINE1,TLE_LINE2,SEMIMAJOR_AXIS,PERIOD,APOGEE,PERIGEE,DECAYED
56793.0,STARLINK-6052,PAYLOAD,2023-10-07 12:00:00,15.09471175,0.0003338,70.0006,53.9687,268.6397,72.9011,-0.064145,-0.00949919,0.0,0 STARLINK-6052,1 56793U 23078AC  23280.50001157 -.00949919  00000-0 -64145-1 0  9998,2 56793  70.0006  53.9687 0003338 268.6397  72.9011 15.09471175 20496,6915.952,95.398,540.125,535.508,0.0
56793.0,STARLINK-6052,PAYLOAD,2023-10-07 14:00:01,15.09299183,0.0003288,70.0006,53.755,271.8306,162.3959,-0.064059,-0.00944584,0.0,0 STARLINK-6052,1 56793U 23078AC  23280.58334491 -.00944584  00000-0 -64059-1 0  9993,2 56793  70.0006  53.7550 0003288 271.8306 162.3959 15.09299183  5904,6916.477,95.409,540.616,536.068,0.0
56793.0,STARLINK-6052,PAYLOAD,2023-10-07 22:00:00,15.08639903,0.0003279,70.0002,52.9005,275.7548,168.6964,-0.064092,-0.00929314,0.0,0 STARLINK-6052,1 56793U 23078AC  23280.91667824 -.00929314  00000-0 -64092-1 0  9990,2 56793  70.0002  52.9005 0003279 275.7548 168.6964 15.08639903  5954,6918.492,95.45,542.626,538.088,0.0
56793.0,STARLINK-6052,PAYLOAD,2023-10-08 12:00:00,15.07514284,0.0003336,70.0006,51.4074,269.2527,101.2049,-0.06778,-0.00951209,0.0,0 STARLINK-6052,1 56793U 23078AC  23281.50001157 -.00951209  00000-0 -67780-1 0  9992,2 56793  70.0006  51.4074 0003336 269.2527 101.2049 15.07514284 20640,6921.936,95.521,546.11,541.491,0.0
56793.0,STARLINK-6052,PAYLOAD,2023-10-08 14:00:01,15.07339595,0.000324,70.0005,51.1944,271.777,190.7802,-0.067328,-0.0094117,0.0,0 STARLINK-6052,1 56793U 23078AC  23281.58334491 -.00941170  00000-0 -67328-1 0  9994,2 56793  70.0005  51.1944 0003240 271.7770 190.7802 15.07339595  5951,6922.47,95.533,546.578,542.092,0.0
56793.0,STARLINK-6052,PAYLOAD,2023-10-08 22:00:00,15.06685443,0.0003196,70.0002,50.3424,275.6096,194.8241,-0.068024,-0.00934645,0.0,0 STARLINK-6052,1 56793U 23078AC  23281.91667824 -.00934645  00000-0 -68024-1 0  9993,2 56793  70.0002  50.3424 0003196 275.6096 194.8241 15.06685443  6000,6924.474,95.574,548.552,544.126,0.0
56793.0,STARLINK-6052,PAYLOAD,2023-10-09 06:00:02,15.05995433,0.0003165,70.0004,49.4915,269.2279,208.3735,-0.064006,-0.00868096,0.0,0 STARLINK-6052,1 56793U 23078AC  23282.25002315 -.00868096  00000-0 -64006-1 0  9991,2 56793  70.0004  49.4915 0003165 269.2279 208.3735 15.05995433 20753,6926.589,95.618,550.646,546.262,0.0
56793.0,STARLINK-6052,PAYLOAD,2023-10-09 14:00:01,15.05376996,0.0003174,70.0007,48.6414,272.021,211.8269,-0.070309,-0.00932591,0.0,0 STARLINK-6052,1 56793U 23078AC  23282.58334491 -.00932591  00000-0 -70309-1 0  9995,2 56793  70.0007  48.6414 0003174 272.0210 211.8269 15.05376996  5928,6928.486,95.657,552.55,548.152,0.0
56793.0,STARLINK-6052,PAYLOAD,2023-10-09 20:00:01,15.04873989,0.0003336,70.0005,48.0043,275.2888,122.7834,-0.068658,-0.00900924,0.0,0 STARLINK-6052,1 56793U 23078AC  23282.83334491 -.00900924  00000-0 -68658-1 0  9992,2 56793  70.0005  48.0043 0003336 275.2888 122.7834 15.04873989 20843,6930.03,95.689,554.206,549.583,0.0
56793.0,STARLINK-6052,PAYLOAD,2023-10-09 22:00:00,15.04732187,0.0003135,70.0004,47.7921,275.2126,214.1628,-0.072246,-0.00941089,0.0,0 STARLINK-6052,1 56793U 23078AC  23282.91667824 -.00941089  00000-0 -72246-1 0  9995,2 56793  70.0004  47.7921 0003135 275.2126 214.1628 15.04732187  5973,6930.465,95.698,554.503,550.157,0.0
56793.0,STARLINK-6052,PAYLOAD,2023-10-10 14:00:01,15.0341606,0.0003155,70.0009,46.0963,272.5605,225.5374,-0.073566,-0.00926272,0.0,0 STARLINK-6052,1 56793U 23078AC  23283.58334491 -.00926272  00000-0 -73566-1 0  9993,2 56793  70.0009  46.0963 0003155 272.5605 225.5374 15.03416060 20968,6934.509,95.782,558.562,554.186,0.0
56793.0,STARLINK-6052,PAYLOAD,2023-10-10 22:00:01,15.02778229,0.0003097,70.0007,45.2495,275.6623,225.6758,-0.076675,-0.00958353,0.0,0 STARLINK-6052,1 56793U 23078AC  23283.91668981 -.00958353  00000-0 -76675-1 0  9993,2 56793  70.0007  45.2495 0003097 275.6623 225.6758 15.02778229  5918,6936.471,95.823,560.484,556.188,0.0
56793.0,STARLINK-6052,PAYLOAD,2023-10-11 14:00:01,15.01455299,0.0003133,70.0012,43.559,273.4979,231.809,-0.07691,-0.00919738,0.0,0 STARLINK-6052,1 56793U 23078AC  23284.58334491 -.00919738  00000-0 -76910-1 0  9999,2 56793  70.0012  43.5590 0003133 273.4979 231.8090 15.01455299  5974,6940.545,95.907,564.584,560.235,0.0
56793.0,STARLINK-6052,PAYLOAD,2023-10-11 22:00:00,15.0082406,0.0003075,70.001,42.7148,276.0655,230.0704,-0.081192,-0.00963307,0.0,0 STARLINK-6052,1 56793U 23078AC  23284.91667824 -.00963307  00000-0 -81192-1 0  9994,2 56793  70.0010  42.7148 0003075 276.0655 230.0704 15.00824060 21164,6942.491,95.947,566.491,562.221,0.0
56793.0,STARLINK-6052,PAYLOAD,2023-10-12 14:00:01,14.99344575,0.0003329,70.0015,41.0294,273.6416,231.8496,-0.0065575,-0.00079523,0.0,0 STARLINK-6052,1 56793U 23078AC  23285.58334491 -.00079523  00000-0 -65575-2 0  9995,2 56793  70.0015  41.0294 0003329 273.6416 231.8496 14.99344575 21266,6947.057,96.042,571.235,566.609,0.0
56793.0,STARLINK-6052,PAYLOAD,2023-10-12 22:00:01,14.99325838,0.0003279,70.0013,40.1874,275.4494,228.7616,-0.0046406,-0.0005646,0.0,0 STARLINK-6052,1 56793U 23078AC  23285.91668981 -.00056460  00000-0 -46406-2 0  9993,2 56793  70.0013  40.1874 0003279 275.4494 228.7616 14.99325838 21314,6947.115,96.043,571.258,566.702,0.0
56793.0,STARLINK-6052,PAYLOAD,2023-10-13 14:00:01,14.99324055,0.0003297,70.0018,38.5044,272.4836,228.9459,-0.0030884,-0.00037705,0.0,0 STARLINK-6052,1 56793U 23078AC  23286.58334491 -.00037705  00000-0 -30884-2 0  9997,2 56793  70.0018  38.5044 0003297 272.4836 228.9459 14.99324055 21414,6947.121,96.043,571.276,566.695,0.0
56793.0,STARLINK-6052,PAYLOAD,2023-10-13 22:00:00,14.99311813,0.0003241,70.0016,37.6627,271.9025,228.2005,-0.0021824,-0.00026705,0.0,0 STARLINK-6052,1 56793U 23078AC  23286.91667824 -.00026705  00000-0 -21824-2 0  9995,2 56793  70.0016  37.6627 0003241 271.9025 228.2005 14.99311813  5973,6947.158,96.044,571.275,566.772,0.0
56793.0,STARLINK-6052,PAYLOAD,2023-10-14 04:00:00,14.99264508,0.0003288,70.0018,37.0314,266.3051,142.7977,0.0082952,0.00102811,0.0,0 STARLINK-6052,1 56793U 23078AC  23287.16667824  .00102811  00000-0  82952-2 0  9993,2 56793  70.0018  37.0314 0003288 266.3051 142.7977 14.99264508 21491,6947.305,96.047,571.454,566.885,0.0
56793.0,STARLINK-6052,PAYLOAD,2023-10-14 14:00:01,14.99350536,0.0003165,70.002,35.9794,270.3867,227.0812,-0.0070436,-0.00085352,0.0,0 STARLINK-6052,1 56793U 23078AC  23287.58335648 -.00085352  00000-0 -70436-2 0  9991,2 56793  70.0020  35.9794 0003165 270.3867 227.0812 14.99350536 21567,6947.039,96.042,571.102,566.705,0.0
56793.0,STARLINK-6052,PAYLOAD,2023-10-14 22:00:00,14.99291612,0.0003021,70.0018,35.1376,270.4284,225.6477,-0.0031305,-0.00038182,0.0,0 STARLINK-6052,1 56793U 23078AC  23287.91667824 -.00038182  00000-0 -31305-2 0  9993,2 56793  70.0018  35.1376 0003021 270.4284 225.6477 14.99291612  5806,6947.221,96.045,571.185,566.987,0.0
56793.0,STARLINK-6052,PAYLOAD,2023-10-15 04:00:00,14.99233626,0.0003035,70.002,34.5064,264.4824,140.5654,0.0074388,0.00091969,0.0,0 STARLINK-6052,1 56793U 23078AC  23288.16667824  .00091969  00000-0  74388-2 0  9999,2 56793  70.0020  34.5064 0003035 264.4824 140.5654 14.99233626 21647,6947.4,96.049,571.373,567.156,0.0
56793.0,STARLINK-6052,PAYLOAD,2023-10-15 12:00:00,14.99302762,0.0003057,70.0023,33.6648,268.0549,135.5941,-0.0016991,-0.00020824,0.0,0 STARLINK-6052,1 56793U 23078AC  23288.50001157 -.00020824  00000-0 -16991-2 0  9998,2 56793  70.0023  33.6648 0003057 268.0549 135.5941 14.99302762 21692,6947.186,96.045,571.175,566.928,0.0
56793.0,STARLINK-6052,PAYLOAD,2023-10-15 14:00:01,14.99290641,0.0003042,70.0022,33.4544,270.072,223.2413,5.5744e-05,5.88e-06,0.0,0 STARLINK-6052,1 56793U 23078AC  23288.58334491  .00000588  00000-0  55744-4 0  9990,2 56793  70.0022  33.4544 0003042 270.0720 223.2413 14.99290641  5909,6947.224,96.045,571.202,566.975,0.0
56793.0,STARLINK-6052,PAYLOAD,2023-10-15 22:00:00,14.99315976,0.0003037,70.0019,32.6126,271.2444,220.7008,-0.0025501,-0.00031171,0.0,0 STARLINK-6052,1 56793U 23078AC  23288.91667824 -.00031171  00000-0 -25501-2 0  9996,2 56793  70.0019  32.6126 0003037 271.2444 220.7008 14.99315976  5958,6947.146,96.044,571.12,566.901,0.0
56793.0,STARLINK-6052,PAYLOAD,2023-10-16 00:36:57,14.99303321,0.0003118,70.0012,32.3376,273.8366,86.2437,-0.00010436,-1.371e-05,0.0,0 STARLINK-6052,1 56793U 23078AC  23289.02567074 -.00001371  00000-0 -10436-3 0  9996,2 56793  70.0012  32.3376 0003118 273.8366  86.2437 14.99303321 21776,6947.185,96.045,571.216,566.883,0.0
56793.0,STARLINK-6052,PAYLOAD,2023-10-16 13:25:32,14.9930092,0.0002741,70.0012,30.9901,270.401,89.6835,9.9246e-05,1.121e-05,0.0,0 STARLINK-6052,1 56793U 23078AC  23289.55940106  .00001121  00000-0  99246-4 0  9993,2 56793  70.0012  30.9901 0002741 270.4010  89.6835 14.99300920 21595,6947.192,96.045,570.961,567.153,0.0
56793.0,STARLINK-6052,PAYLOAD,2023-10-16 16:37:40,14.99308662,0.0003208,70.0004,30.6529,267.4698,92.6094,0.00021031,2.481e-05,0.0,0 STARLINK-6052,1 56793U 23078AC  23289.69282523  .00002481  00000-0  21031-3 0  9996,2 56793  70.0004  30.6529 0003208 267.4698  92.6094 14.99308662 21879,6947.168,96.044,571.262,566.804,0.0
56793.0,STARLINK-6052,PAYLOAD,2023-10-17 10:14:28,14.99287749,0.0003358,70.0001,28.7997,270.7421,89.3354,0.00016799,1.962e-05,0.0,0 STARLINK-6052,1 56793U 23078AC  23290.42672418  .00001962  00000-0  16799-3 0  9993,2 56793  70.0001  28.7997 0003358 270.7421  89.3354 14.99287749 21986,6947.233,96.046,571.431,566.765,0.0
56793.0,STARLINK-6052,PAYLOAD,2023-10-17 13:26:37,14.99296663,0.0003079,70.0005,28.4624,269.7238,90.3569,0.00025447,3.021e-05,0.0,0 STARLINK-6052,1 56793U 23078AC  23290.56015131  .00003021  00000-0  25447-3 0  9999,2 56793  70.0005  28.4624 0003079 269.7238  90.3569 14.99296663 21747,6947.205,96.045,571.209,566.931,0.0
